NORAD_CAT_ID,OBJECT_NAME,OBJECT_TYPE,EPOCH,MEAN_MOTION,ECCENTRICITY,INCLINATION,RA_OF_ASC_NODE,ARG_OF_PERICENTER,MEAN_ANOMALY,BSTAR,MEAN_MOTION_DOT,MEAN_MOTION_DDOT,TLE_LINE0,TLE_LINE1,TLE_LINE2,SEMIMAJOR_AXIS,PERIOD,APOGEE,PERIGEE,DECAYED
53887.0,STARLINK-5029,PAYLOAD,2023-12-26 04:59:59,15.08839551,0.0001505,53.2163,335.6869,119.1204,240.9939,1.1704e-05,-1.02e-06,0.0,0 STARLINK-5029,1 53887U 22119B   23360.20833237 -.00000102  00000-0  11704-4 0  9999,2 53887  53.2163 335.6869 0001505 119.1204 240.9939 15.08839551 70235,6917.882,95.438,540.788,538.706,0.0
53887.0,STARLINK-5029,PAYLOAD,2023-12-26 22:29:14,15.08841008,0.000148,53.2167,332.4116,110.9149,249.2002,0.00014215,1.975e-05,0.0,0 STARLINK-5029,1 53887U 22119B   23360.93697495  .00001975  00000-0  14215-3 0  9990,2 53887  53.2167 332.4116 0001480 110.9149 249.2002 15.08841008 70343,6917.877,95.437,540.766,538.718,0.0
53887.0,STARLINK-5029,PAYLOAD,2023-12-27 08:01:33,15.08858185,0.0001555,53.2165,330.6361,91.5955,268.5215,0.00058252,9e-05,0.0,0 STARLINK-5029,1 53887U 22119B   23361.33441097  .00009000  00000-0  58252-3 0  9996,2 53887  53.2165 330.6361 0001555  91.5955 268.5215 15.08858185 69987,6917.825,95.436,540.766,538.614,0.0
53887.0,STARLINK-5029,PAYLOAD,2023-12-27 22:20:01,15.0884245,0.0001684,53.2175,327.9517,96.8137,263.3046,8.3675e-05,1.044e-05,0.0,0 STARLINK-5029,1 53887U 22119B   23361.93057347  .00001044  00000-0  83675-4 0  9991,2 53887  53.2175 327.9517 0001684  96.8137 263.3046 15.08842450 70494,6917.873,95.437,540.903,538.573,0.0
53887.0,STARLINK-5029,PAYLOAD,2023-12-28 03:06:11,15.08843311,0.000144,53.2166,327.0694,93.4425,266.6732,0.00014448,2.012e-05,0.0,0 STARLINK-5029,1 53887U 22119B   23362.12929487  .00002012  00000-0  14448-3 0  9993,2 53887  53.2166 327.0694 0001440  93.4425 266.6732 15.08843311 70107,6917.87,95.437,540.731,538.739,0.0
53887.0,STARLINK-5029,PAYLOAD,2023-12-28 07:52:20,15.08848684,0.0001399,53.2169,326.1766,87.3336,272.7816,0.00034326,5.181e-05,0.0,0 STARLINK-5029,1 53887U 22119B   23362.32801394  .00005181  00000-0  34326-3 0  9998,2 53887  53.2169 326.1766 0001399  87.3336 272.7816 15.08848684 70554,6917.854,95.437,540.687,538.751,0.0
53887.0,STARLINK-5029,PAYLOAD,2023-12-29 02:56:58,15.08839969,0.0001458,53.2176,322.6046,102.6724,257.4431,0.00027624,4.111e-05,0.0,0 STARLINK-5029,1 53887U 22119B   23363.12289733  .00004111  00000-0  27624-3 0  9999,2 53887  53.2176 322.6046 0001458 102.6724 257.4431 15.08839969 70258,6917.88,95.438,540.754,538.737,0.0
53887.0,STARLINK-5029,PAYLOAD,2023-12-30 05:58:31,15.08852703,0.0001382,53.218,317.5546,88.6927,271.4223,0.00042648,6.508e-05,0.0,0 STARLINK-5029,1 53887U 22119B   23364.24897496  .00006508  00000-0  42648-3 0  9999,2 53887  53.2180 317.5546 0001382  88.6927 271.4223 15.08852703 70420,6917.842,95.437,540.663,538.751,0.0
53887.0,STARLINK-5029,PAYLOAD,2023-12-31 02:38:32,15.08840613,0.000146,53.2172,313.6884,92.9232,267.1927,8.403e-05,1.05e-05,0.0,0 STARLINK-5029,1 53887U 22119B   23365.11009863  .00001050  00000-0  84030-4 0  9998,2 53887  53.2172 313.6884 0001460  92.9232 267.1927 15.08840613 70551,6917.879,95.438,540.754,538.734,0.0
53887.0,STARLINK-5029,PAYLOAD,2023-12-31 20:07:47,15.08840727,0.000147,53.2168,310.4179,93.1076,267.0084,9.4302e-05,1.213e-05,0.0,0 STARLINK-5029,1 53887U 22119B   23365.83874009  .00001213  00000-0  94302-4 0  9993,2 53887  53.2168 310.4179 0001470  93.1076 267.0084 15.08840727 71086,6917.878,95.438,540.76,538.726,0.0
53887.0,STARLINK-5029,PAYLOAD,2024-01-01 04:04:42,15.08847598,0.0001448,53.2166,308.9309,93.0588,267.057,0.00020463,2.971e-05,0.0,0 STARLINK-5029,1 53887U 22119B   24001.16993767  .00002971  00000-0  20463-3 0  9998,2 53887  53.2166 308.9309 0001448  93.0588 267.0570 15.08847598 70715,6917.857,95.437,540.724,538.72,0.0
53887.0,STARLINK-5029,PAYLOAD,2024-01-01 19:58:34,15.08843204,0.0001559,53.2166,305.9577,84.493,275.624,0.00020516,2.979e-05,0.0,0 STARLINK-5029,1 53887U 22119B   24001.83234132  .00002979  00000-0  20516-3 0  9993,2 53887  53.2166 305.9577 0001559  84.4930 275.6240 15.08843204 70817,6917.871,95.437,540.814,538.657,0.0
53887.0,STARLINK-5029,PAYLOAD,2024-01-02 02:20:06,15.08845911,0.0001537,53.2164,304.7678,84.2047,275.912,0.00023943,3.525e-05,0.0,0 STARLINK-5029,1 53887U 22119B   24002.09730012  .00003525  00000-0  23943-3 0  9995,2 53887  53.2164 304.7678 0001537  84.2047 275.9120 15.08845911 71275,6917.862,95.437,540.791,538.664,0.0
53887.0,STARLINK-5029,PAYLOAD,2024-01-02 19:49:21,15.08845434,0.0001562,53.2161,301.497,83.9705,276.1465,0.00015425,2.168e-05,0.0,0 STARLINK-5029,1 53887U 22119B   24002.82593989  .00002168  00000-0  15425-3 0  9994,2 53887  53.2161 301.4970 0001562  83.9705 276.1465 15.08845434 71383,6917.864,95.437,540.809,538.648,0.0
53887.0,STARLINK-5029,PAYLOAD,2024-01-03 02:10:53,15.08848937,0.0001431,53.2166,300.3075,91.6503,268.4653,0.00017209,2.453e-05,0.0,0 STARLINK-5029,1 53887U 22119B   24003.09089692  .00002453  00000-0  17209-3 0  9994,2 53887  53.2166 300.3075 0001431  91.6503 268.4653 15.08848937 71002,6917.853,95.437,540.708,538.728,0.0
53887.0,STARLINK-5029,PAYLOAD,2024-01-03 05:21:39,15.08851476,0.0001411,53.2166,299.7122,96.2788,263.8365,0.00018702,2.691e-05,0.0,0 STARLINK-5029,1 53887U 22119B   24003.22337472  .00002691  00000-0  18702-3 0  9994,2 53887  53.2166 299.7122 0001411  96.2788 263.8365 15.08851476 71449,6917.845,95.437,540.686,538.734,0.0
53887.0,STARLINK-5029,PAYLOAD,2024-01-03 22:50:54,15.08841352,0.000156,53.2166,296.4398,107.1346,252.9817,3.6124e-05,2.87e-06,0.0,0 STARLINK-5029,1 53887U 22119B   24003.95201900  .00000287  00000-0  36124-4 0  9998,2 53887  53.2166 296.4398 0001560 107.1346 252.9817 15.08841352 71550,6917.876,95.437,540.82,538.662,0.0
53887.0,STARLINK-5029,PAYLOAD,2024-01-04 02:01:40,15.08844749,0.0001624,53.2168,295.8417,112.3309,247.7856,4.8067e-05,4.77e-06,0.0,0 STARLINK-5029,1 53887U 22119B   24004.08449577  .00000477  00000-0  48067-4 0  9997,2 53887  53.2168 295.8417 0001624 112.3309 247.7856 15.08844749 71159,6917.866,95.437,540.854,538.607,0.0
53887.0,STARLINK-5029,PAYLOAD,2024-01-04 19:30:55,15.08840724,0.0001631,53.2168,292.5736,109.5228,250.594,1.0948e-06,-2.71e-06,0.0,0 STARLINK-5029,1 53887U 22119B   24004.81313874 -.00000271  00000-0  10948-5 0  9999,2 53887  53.2168 292.5736 0001631 109.5228 250.5940 15.08840724 71260,6917.878,95.438,540.871,538.615,0.0
53887.0,STARLINK-5029,PAYLOAD,2024-01-04 22:41:41,15.08842596,0.0001697,53.2167,291.9778,113.331,246.7861,2.608e-05,1.27e-06,0.0,0 STARLINK-5029,1 53887U 22119B   24004.94561731  .00000127  00000-0  26080-4 0  9992,2 53887  53.2167 291.9778 0001697 113.3310 246.7861 15.08842596 71702,6917.872,95.437,540.911,538.563,0.0
53887.0,STARLINK-5029,PAYLOAD,2024-01-05 01:52:27,15.08841756,0.0001582,53.2168,291.3857,102.989,257.1279,3.4209e-05,2.56e-06,0.0,0 STARLINK-5029,1 53887U 22119B   24005.07809820  .00000256  00000-0  34209-4 0  9996,2 53887  53.2168 291.3857 0001582 102.9890 257.1279 15.08841756 71723,6917.875,95.437,540.834,538.646,0.0
53887.0,STARLINK-5029,PAYLOAD,2024-01-05 19:21:42,15.08832428,0.0001641,53.2176,288.1161,101.9802,258.1375,3.5265e-05,2.73e-06,0.0,0 STARLINK-5029,1 53887U 22119B   24005.80674730  .00000273  00000-0  35265-4 0  9999,2 53887  53.2176 288.1161 0001641 101.9802 258.1375 15.08832428 71412,6917.904,95.438,540.904,538.633,0.0
53887.0,STARLINK-5029,PAYLOAD,2024-01-05 22:32:29,15.08821906,0.0001699,53.2175,287.5212,111.7848,248.3325,0.00021727,3.17e-05,0.0,0 STARLINK-5029,1 53887U 22119B   24005.93922802  .00003170  00000-0  21727-3 0  9995,2 53887  53.2175 287.5212 0001699 111.7848 248.3325 15.08821906 71856,6917.936,95.439,540.976,538.625,0.0
53887.0,STARLINK-5029,PAYLOAD,2024-01-06 04:54:01,15.08829002,0.0001538,53.2176,286.3315,106.9659,253.1502,0.0001477,2.063e-05,0.0,0 STARLINK-5029,1 53887U 22119B   24006.20418761  .00002063  00000-0  14770-3 0  9990,2 53887  53.2176 286.3315 0001538 106.9659 253.1502 15.08829002 71896,6917.914,95.438,540.843,538.715,0.0
53887.0,STARLINK-5029,PAYLOAD,2024-01-06 22:23:16,15.08836442,0.0001499,53.2175,283.0605,100.3218,259.7943,4.7458e-05,4.67e-06,0.0,0 STARLINK-5029,1 53887U 22119B   24006.93282749  .00000467  00000-0  47458-4 0  9991,2 53887  53.2175 283.0605 0001499 100.3218 259.7943 15.08836442 72007,6917.891,95.438,540.793,538.719,0.0
53887.0,STARLINK-5029,PAYLOAD,2024-01-07 01:34:02,15.08838301,0.0001497,53.2176,282.4658,98.8966,261.2196,5.895e-05,6.5e-06,0.0,0 STARLINK-5029,1 53887U 22119B   24007.06530624  .00000650  00000-0  58950-4 0  9997,2 53887  53.2176 282.4658 0001497  98.8966 261.2196 15.08838301 71607,6917.886,95.438,540.786,538.715,0.0
53887.0,STARLINK-5029,PAYLOAD,2024-01-07 22:14:03,15.08839248,0.0001424,53.2175,278.6003,100.3599,259.7554,9.6447e-05,1.247e-05,0.0,0 STARLINK-5029,1 53887U 22119B   24007.92642714  .00001247  00000-0  96447-4 0  9992,2 53887  53.2175 278.6003 0001424 100.3599 259.7554 15.08839248 72150,6917.883,95.438,540.733,538.763,0.0
53887.0,STARLINK-5029,PAYLOAD,2024-01-08 01:24:49,15.08842568,0.0001389,53.2171,278.0054,94.88,265.2351,0.00012397,1.686e-05,0.0,0 STARLINK-5029,1 53887U 22119B   24008.05890478  .00001686  00000-0  12397-3 0  9997,2 53887  53.2171 278.0054 0001389  94.8800 265.2351 15.08842568 72176,6917.873,95.437,540.698,538.777,0.0
53887.0,STARLINK-5029,PAYLOAD,2024-01-08 22:04:50,15.08840642,0.0001748,53.2178,274.1419,68.3342,291.7836,5.9896e-05,6.65e-06,0.0,0 STARLINK-5029,1 53887U 22119B   24008.92003087  .00000665  00000-0  59896-4 0  9997,2 53887  53.2178 274.1419 0001748  68.3342 291.7836 15.08840642 72309,6917.878,95.438,540.953,538.534,0.0
53887.0,STARLINK-5029,PAYLOAD,2024-01-09 01:15:37,15.08801495,0.0001901,53.2182,273.5478,68.6205,291.499,0.00066448,0.00010292,0.0,0 STARLINK-5029,1 53887U 22119B   24009.05251845  .00010292  00000-0  66448-3 0  9996,2 53887  53.2182 273.5478 0001901  68.6205 291.4990 15.08801495 71900,6917.998,95.44,541.178,538.548,0.0
